GSAT-29                 
1 43698U 18089A   26188.65499979  .00000100  00000+0  00000+0 0  9998
2 43698   0.0606 256.9888 0003239 184.2515 135.2264  1.00273634 27999
ES'HAIL 2               
1 43700U 18090A   26188.72043639  .00000159  00000+0  00000+0 0  9994
2 43700   0.0155 301.5408 0002315 210.7205  58.5928  1.00272623 27881
GEO-KOMPSAT-2A          
1 43823U 18100A   26188.74071647 -.00000328  00000+0  00000+0 0  9993
2 43823   0.0405 143.2938 0002313 316.4339 220.8975  1.00270880 27838
GSAT-11                 
1 43824U 18100B   26188.72996977 -.00000062  00000+0  00000+0 0  9999
2 43824   0.0673 264.5708 0007851 191.4353 166.4906  1.00271181 27684
GSAT-7A                 
1 43864U 18105A   26188.72780308  .00000042  00000+0  00000+0 0  9994
2 43864   0.0650  93.2598 0001814   9.9116 147.3047  1.00269608 27652
COSMOS 2533             
1 43867U 18107A   26188.86413821 -.00000022  00000+0  00000+0 0  9996
2 43867   0.0391 113.0014 0000075 203.4581 350.4542  1.00267650 27658
TJS-3                   
1 43874U 18110A   26188.67337470 -.00000202  00000+0  00000+0 0  9992
2 43874   2.5943  80.2497 0002425  83.8282 152.1612  1.00273933 27628
ZHONGXING-2D            
1 43920U 19001A   26188.52724153 -.00000322  00000+0  00000+0 0  9999
2 43920   0.0378 114.3399 0000814 229.2600 261.6832  1.00267834 54280
HELLAS-SAT 4 & SGS-1    
1 44034U 19007A   26188.58052480  .00000168  00000+0  00000+0 0  9992
2 44034   0.0651 130.2523 0005893  15.0658  28.2355  1.00271288 27570
GSAT-31                 
1 44035U 19007B   26188.43955009  .00000140  00000+0  00000+0 0  9996
2 44035   0.0100 315.1511 0000121 353.3813 183.0107  1.00274640 27177
NUSANTARA SATU          
1 44048U 19009A   26187.88879014 -.00000220  00000+0  00000+0 0  9991
2 44048   0.0343 125.0647 0004682 358.9786 266.7893  1.00270055 26967
ZHONGXING-6C            
1 44067U 19012A   26188.66990803 -.00000320  00000+0  00000+0 0  9994
2 44067   0.0734  73.7189 0014252 338.7713 244.7029  1.00268204 26940
WGS 10 (USA 291)        
1 44071U 19014A   26188.37079389  .00000062  00000+0  00000+0 0  9998
2 44071   0.0193  44.7694 0000106 206.3455 228.0118  1.00270891 26825
TIANLIAN 2-01           
1 44076U 19017A   26188.73057644 -.00000092  00000+0  00000+0 0  9990
2 44076   0.5897  83.0930 0001381  68.9610 113.6735  1.00271381 26858
ARABSAT-6A              
1 44186U 19021A   26188.72138972  .00000169  00000+0  00000+0 0  9994
2 44186   0.0454   3.5570 0001369 265.9025 306.4165  1.00267323 26362
BEIDOU-3 IGSO-1         
1 44204U 19023A   26188.39613446 -.00000208  00000+0  00000+0 0  9999
2 44204  58.7230  37.4430 0025584 223.9763 285.4775  1.00285689  7417
BEIDOU-2 G8             
1 44231U 19027A   26188.88659801 -.00000233  00000+0  00000+0 0  9990
2 44231   1.7072  74.5162 0009917 284.7279  30.2695  1.00274660 26282
YAMAL 601               
1 44307U 19031A   26188.79622481  .00000135  00000+0  00000+0 0  9993
2 44307   0.0167  81.6484 0002440  22.0147 157.7373  1.00271475 26133
AT&T T-16               
1 44333U 19034A   26188.62412117 -.00000100  00000+0  00000+0 0  9993
2 44333   0.0146  66.9323 0000472 242.0117 100.4644  1.00268804 25835
EUTELSAT 7C             
1 44334U 19034B   26188.14644789  .00000064  00000+0  00000+0 0  9991
2 44334   0.0758 181.2588 0003364 273.6653 249.9343  1.00272499  7039
BEIDOU-3 IGSO-2         
1 44337U 19035A   26188.81033301 -.00000072  00000+0  00000+0 0  9991
2 44337  55.2504 158.6819 0039633 216.3902 321.3360  1.00260158 25872
COSMOS 2539             
1 44457U 19048A   26188.78900053  .00000090  00000+0  00000+0 0  9990
2 44457   0.0323 101.4867 0002189  59.2835  60.9987  1.00234210 25439
EDRS-C                  
1 44475U 19049A   26188.60098105 -.00000247  00000+0  00000+0 0  9993
2 44475   0.0205 114.6862 0001030   2.5374 167.1965  1.00268914 25414
INTELSAT 39 (IS-39)     
1 44476U 19049B   26188.37105389  .00000048  00000+0  00000+0 0  9999
2 44476   0.0158   9.7580 0000504 307.4421 163.6784  1.00274979 25337
AMOS-17                 
1 44479U 19050A   26188.64743462  .00000124  00000+0  00000+0 0  9999
2 44479   0.0231 326.8477 0001454 140.5330  68.2850  1.00270883 25390
AEHF-5 (USA 292)        
1 44481U 19051A   26188.73369646 -.00000241  00000+0  00000+0 0  9992
2 44481   1.4364 337.7134 0065480 358.6876 306.4307  1.00267136 25461
EUTELSAT 5 WEST B       
1 44624U 19067A   26188.71436823 -.00000027  00000+0  00000+0 0  9990
2 44624   0.0653 340.8282 0003154 126.8720  70.1461  1.00271345 24640
MEV-1                   
1 44625U 19067B   26167.92963140 -.00000149  00000+0  00000+0 0  9993
2 44625   0.8740 268.9828 0002794 179.8034 307.2103  1.00269616 61744
TJS-4                   
1 44637U 19070A   26188.66063315 -.00000155  00000+0  00000+0 0  9996
2 44637   0.0641  87.3109 0003528 320.7236 198.9693  1.00270669 24749
TIBA-1                  
1 44800U 19080A   26188.72242975  .00000171  00000+0  00000+0 0  9994
2 44800   0.0504 353.6602 0002189 135.2906  92.3339  1.00274991 24264
INMARSAT GX5            
1 44801U 19080B   26188.71757492  .00000090  00000+0  00000+0 0  9999
2 44801   0.0365  18.8666 0002151  82.8785  93.2776  1.00271379  6993
JCSAT-18 (KACIFIC 1)    
1 44868U 19091A   26187.62760723 -.00000186  00000+0  00000+0 0  9991
2 44868   0.0370 220.0454 0000477 350.5897  89.9040  1.00268920 24200
