OBJECT_NAME,OBJECT_ID,EPOCH,MEAN_MOTION,ECCENTRICITY,INCLINATION,RA_OF_ASC_NODE,ARG_OF_PERICENTER,MEAN_ANOMALY,EPHEMERIS_TYPE,CLASSIFICATION_TYPE,NORAD_CAT_ID,ELEMENT_SET_NO,REV_AT_EPOCH,BSTAR,MEAN_MOTION_DOT,MEAN_MOTION_DDOT
GSAT-29,2018-089A,2026-07-07T15:43:11.981856,1.00273634,.0003239,0.0606,256.9888,184.2515,135.2264,0,U,43698,999,2799,0,.1E-5,0
ES'HAIL 2,2018-090A,2026-07-07T17:17:25.704096,1.00272623,.0002315,0.0155,301.5408,210.7205,58.5928,0,U,43700,999,2788,0,.159E-5,0
GEO-KOMPSAT-2A,2018-100A,2026-07-07T17:46:37.903008,1.00270880,.0002313,0.0405,143.2938,316.4339,220.8975,0,U,43823,999,2783,0,-.328E-5,0
GSAT-11,2018-100B,2026-07-07T17:31:09.388128,1.00271181,.0007851,0.0673,264.5708,191.4353,166.4906,0,U,43824,999,2768,0,-.62E-6,0
GSAT-7A,2018-105A,2026-07-07T17:28:02.186112,1.00269608,.0001814,0.0650,93.2598,9.9116,147.3047,0,U,43864,999,2765,0,.42E-6,0
COSMOS 2533,2018-107A,2026-07-07T20:44:21.541344,1.00267650,.0000075,0.0391,113.0014,203.4581,350.4542,0,U,43867,999,2765,0,-.22E-6,0
TJS-3,2018-110A,2026-07-07T16:09:39.574080,1.00273933,.0002425,2.5943,80.2497,83.8282,152.1612,0,U,43874,999,2762,0,-.202E-5,0
ZHONGXING-2D,2019-001A,2026-07-07T12:39:13.668192,1.00267834,.00008143,0.0378,114.3399,229.2600,261.6832,0,U,43920,999,5428,0,-.322E-5,0
HELLAS-SAT 4 & SGS-1,2019-007A,2026-07-07T13:55:57.342720,1.00271288,.0005893,0.0651,130.2523,15.0658,28.2355,0,U,44034,999,2757,0,.168E-5,0
GSAT-31,2019-007B,2026-07-07T10:32:57.127776,1.00274640,.0000121,0.0100,315.1511,353.3813,183.0107,0,U,44035,999,2717,0,.14E-5,0
NUSANTARA SATU,2019-009A,2026-07-06T21:19:51.468096,1.00270055,.00046823,0.0343,125.0647,358.9786,266.7893,0,U,44048,999,2696,0,-.22E-5,0
ZHONGXING-6C,2019-012A,2026-07-07T16:04:40.053792,1.00268204,.0014252,0.0734,73.7189,338.7713,244.7029,0,U,44067,999,2694,0,-.32E-5,0
WGS 10 (USA 291),2019-014A,2026-07-07T08:53:56.592096,1.00270891,.00001063,0.0193,44.7694,206.3455,228.0118,0,U,44071,999,2682,0,.62E-6,0
TIANLIAN 2-01,2019-017A,2026-07-07T17:32:01.804416,1.00271381,.0001381,0.5897,83.0930,68.9610,113.6735,0,U,44076,999,2685,0,-.92E-6,0
ARABSAT-6A,2019-021A,2026-07-07T17:18:48.071808,1.00267323,.0001369,0.0454,3.5570,265.9025,306.4165,0,U,44186,999,2636,0,.169E-5,0
BEIDOU-3 IGSO-1,2019-023A,2026-07-07T09:30:26.017344,1.00285689,.00255845,58.7230,37.4430,223.9763,285.4775,0,U,44204,999,741,0,-.208E-5,0
BEIDOU-2 G8,2019-027A,2026-07-07T21:16:42.068064,1.00274660,.0009917,1.7072,74.5162,284.7279,30.2695,0,U,44231,999,2628,0,-.233E-5,0
YAMAL 601,2019-031A,2026-07-07T19:06:33.823584,1.00271475,.000244,0.0167,81.6484,22.0147,157.7373,0,U,44307,999,2613,0,.135E-5,0
AT&T T-16,2019-034A,2026-07-07T14:58:44.069088,1.00268804,.0000472,0.0146,66.9323,242.0117,100.4644,0,U,44333,999,2583,0,-.1E-5,0
EUTELSAT 7C,2019-034B,2026-07-07T03:30:53.097696,1.00272499,.00033642,0.0758,181.2588,273.6653,249.9343,0,U,44334,999,703,0,.64E-6,0
BEIDOU-3 IGSO-2,2019-035A,2026-07-07T19:26:52.772064,1.00260158,.0039633,55.2504,158.6819,216.3902,321.3360,0,U,44337,999,2587,0,-.72E-6,0
COSMOS 2539,2019-048A,2026-07-07T18:56:09.645792,1.00234210,.0002189,0.0323,101.4867,59.2835,60.9987,0,U,44457,999,2543,0,.9E-6,0
EDRS-C,2019-049A,2026-07-07T14:25:24.762720,1.00268914,.000103,0.0205,114.6862,2.5374,167.1965,0,U,44475,999,2541,0,-.247E-5,0
INTELSAT 39 (IS-39),2019-049B,2026-07-07T08:54:19.056096,1.00274979,.00005042,0.0158,9.7580,307.4421,163.6784,0,U,44476,999,2533,0,.48E-6,0
AMOS-17,2019-050A,2026-07-07T15:32:18.351168,1.00270883,.0001454,0.0231,326.8477,140.5330,68.2850,0,U,44479,999,2539,0,.124E-5,0
AEHF-5 (USA 292),2019-051A,2026-07-07T17:36:31.374144,1.00267136,.006548,1.4364,337.7134,358.6876,306.4307,0,U,44481,999,2546,0,-.241E-5,0
EUTELSAT 5 WEST B,2019-067A,2026-07-07T17:08:41.415072,1.00271345,.0003154,0.0653,340.8282,126.8720,70.1461,0,U,44624,999,2464,0,-.27E-6,0
MEV-1,2019-067B,2026-06-16T22:18:40.152960,1.00269616,.00027946,0.8740,268.9828,179.8034,307.2103,0,U,44625,999,6174,0,-.149E-5,0
TJS-4,2019-070A,2026-07-07T15:51:18.704160,1.00270669,.0003528,0.0641,87.3109,320.7236,198.9693,0,U,44637,999,2474,0,-.155E-5,0
TIBA-1,2019-080A,2026-07-07T17:20:17.930400,1.00274991,.0002189,0.0504,353.6602,135.2906,92.3339,0,U,44800,999,2426,0,.171E-5,0
INMARSAT GX5,2019-080B,2026-07-07T17:13:18.473088,1.00271379,.0002151,0.0365,18.8666,82.8785,93.2776,0,U,44801,999,699,0,.9E-6,0
JCSAT-18 (KACIFIC 1),2019-091A,2026-07-06T15:03:45.264672,1.00268920,.00004771,0.0370,220.0454,350.5897,89.9040,0,U,44868,999,2420,0,-.186E-5,0
